IRIDIUM 39              
1 25042U 97069D   25178.34775063  .00000366  00000+0  90706-4 0  9992
2 25042  86.3923 206.7769 0015465 273.5888  86.3548 14.49228074450436
IRIDIUM 38              
1 25043U 97069E   25178.60579210  .00000253  00000+0  76895-4 0  9996
2 25043  86.3959 228.7729 0004144  79.6875 280.4790 14.38123662447458
IRIDIUM 42              
1 25077U 97077A   25178.55512413  .00000300  00000+0  95852-4 0  9995
2 25077  86.3961 234.9763 0003071  90.0689 270.0860 14.36358833442684
IRIDIUM 44              
1 25078U 97077B   25178.34263742  .00000245  00000+0  71076-4 0  9991
2 25078  86.3966 216.9666 0002838  50.0670 310.0778 14.40247873445163
IRIDIUM 45              
1 25104U 97082A   25178.37477405  .00011134  00000+0  39791-3 0  9999
2 25104  86.3570  42.9453 0113620 294.0317  64.9069 15.22659300453592
IRIDIUM 24              
1 25105U 97082B   25178.44148226  .00000363  00000+0  10416-3 0  9999
2 25105  86.3897  75.9520 0013177  50.7007 309.5359 14.42106711444690
IRIDIUM 51              
1 25262U 98018A   25178.62261864  .00022276  00000+0  48665-3 0  9991
2 25262  86.3820  50.6642 0084260 208.4000 151.2651 15.40249806448638
IRIDIUM 57              
1 25273U 98019B   25178.34627877  .00000240  00000+0  75878-4 0  9997
2 25273  86.3979 141.0068 0002342  85.9083 274.2381 14.35898498426241
