<?xml version="1.0" encoding="UTF-8"?>
<ndm xmlns:xsi="http://www.w3.org/2001/XMLSchema-instance" xsi:noNamespaceSchemaLocation="https://sanaregistry.org/r/ndmxml_unqualified/ndmxml-2.0.0-master-2.0.xsd">
<omm id="CCSDS_OMM_VERS" version="2.0">
<header><CREATION_DATE/><ORIGINATOR/></header><body><segment><metadata><OBJECT_NAME>IRIDIUM 39</OBJECT_NAME><OBJECT_ID>1997-069D</OBJECT_ID><CENTER_NAME>EARTH</CENTER_NAME><REF_FRAME>TEME</REF_FRAME><TIME_SYSTEM>UTC</TIME_SYSTEM><MEAN_ELEMENT_THEORY>SGP4</MEAN_ELEMENT_THEORY></metadata><data><meanElements><EPOCH>2025-06-27T08:20:45.654432</EPOCH><MEAN_MOTION>14.49228074</MEAN_MOTION><ECCENTRICITY>.0015465</ECCENTRICITY><INCLINATION>86.3923</INCLINATION><RA_OF_ASC_NODE>206.7769</RA_OF_ASC_NODE><ARG_OF_PERICENTER>273.5888</ARG_OF_PERICENTER><MEAN_ANOMALY>86.3548</MEAN_ANOMALY></meanElements><tleParameters><EPHEMERIS_TYPE>0</EPHEMERIS_TYPE><CLASSIFICATION_TYPE>U</CLASSIFICATION_TYPE><NORAD_CAT_ID>25042</NORAD_CAT_ID><ELEMENT_SET_NO>999</ELEMENT_SET_NO><REV_AT_EPOCH>45043</REV_AT_EPOCH><BSTAR>.90706E-4</BSTAR><MEAN_MOTION_DOT>.366E-5</MEAN_MOTION_DOT><MEAN_MOTION_DDOT>0</MEAN_MOTION_DDOT></tleParameters></data></segment></body></omm>
<omm id="CCSDS_OMM_VERS" version="2.0">
<header><CREATION_DATE/><ORIGINATOR/></header><body><segment><metadata><OBJECT_NAME>IRIDIUM 38</OBJECT_NAME><OBJECT_ID>1997-069E</OBJECT_ID><CENTER_NAME>EARTH</CENTER_NAME><REF_FRAME>TEME</REF_FRAME><TIME_SYSTEM>UTC</TIME_SYSTEM><MEAN_ELEMENT_THEORY>SGP4</MEAN_ELEMENT_THEORY></metadata><data><meanElements><EPOCH>2025-06-27T14:32:20.437440</EPOCH><MEAN_MOTION>14.38123662</MEAN_MOTION><ECCENTRICITY>.0004144</ECCENTRICITY><INCLINATION>86.3959</INCLINATION><RA_OF_ASC_NODE>228.7729</RA_OF_ASC_NODE><ARG_OF_PERICENTER>79.6875</ARG_OF_PERICENTER><MEAN_ANOMALY>280.4790</MEAN_ANOMALY></meanElements><tleParameters><EPHEMERIS_TYPE>0</EPHEMERIS_TYPE><CLASSIFICATION_TYPE>U</CLASSIFICATION_TYPE><NORAD_CAT_ID>25043</NORAD_CAT_ID><ELEMENT_SET_NO>999</ELEMENT_SET_NO><REV_AT_EPOCH>44745</REV_AT_EPOCH><BSTAR>.76895E-4</BSTAR><MEAN_MOTION_DOT>.253E-5</MEAN_MOTION_DOT><MEAN_MOTION_DDOT>0</MEAN_MOTION_DDOT></tleParameters></data></segment></body></omm>
<omm id="CCSDS_OMM_VERS" version="2.0">
<header><CREATION_DATE/><ORIGINATOR/></header><body><segment><metadata><OBJECT_NAME>IRIDIUM 42</OBJECT_NAME><OBJECT_ID>1997-077A</OBJECT_ID><CENTER_NAME>EARTH</CENTER_NAME><REF_FRAME>TEME</REF_FRAME><TIME_SYSTEM>UTC</TIME_SYSTEM><MEAN_ELEMENT_THEORY>SGP4</MEAN_ELEMENT_THEORY></metadata><data><meanElements><EPOCH>2025-06-27T13:19:22.724832</EPOCH><MEAN_MOTION>14.36358833</MEAN_MOTION><ECCENTRICITY>.0003071</ECCENTRICITY><INCLINATION>86.3961</INCLINATION><RA_OF_ASC_NODE>234.9763</RA_OF_ASC_NODE><ARG_OF_PERICENTER>90.0689</ARG_OF_PERICENTER><MEAN_ANOMALY>270.0860</MEAN_ANOMALY></meanElements><tleParameters><EPHEMERIS_TYPE>0</EPHEMERIS_TYPE><CLASSIFICATION_TYPE>U</CLASSIFICATION_TYPE><NORAD_CAT_ID>25077</NORAD_CAT_ID><ELEMENT_SET_NO>999</ELEMENT_SET_NO><REV_AT_EPOCH>44268</REV_AT_EPOCH><BSTAR>.95852E-4</BSTAR><MEAN_MOTION_DOT>.3E-5</MEAN_MOTION_DOT><MEAN_MOTION_DDOT>0</MEAN_MOTION_DDOT></tleParameters></data></segment></body></omm>
<omm id="CCSDS_OMM_VERS" version="2.0">
<header><CREATION_DATE/><ORIGINATOR/></header><body><segment><metadata><OBJECT_NAME>IRIDIUM 44</OBJECT_NAME><OBJECT_ID>1997-077B</OBJECT_ID><CENTER_NAME>EARTH</CENTER_NAME><REF_FRAME>TEME</REF_FRAME><TIME_SYSTEM>UTC</TIME_SYSTEM><MEAN_ELEMENT_THEORY>SGP4</MEAN_ELEMENT_THEORY></metadata><data><meanElements><EPOCH>2025-06-27T08:13:23.873088</EPOCH><MEAN_MOTION>14.40247873</MEAN_MOTION><ECCENTRICITY>.0002838</ECCENTRICITY><INCLINATION>86.3966</INCLINATION><RA_OF_ASC_NODE>216.9666</RA_OF_ASC_NODE><ARG_OF_PERICENTER>50.0670</ARG_OF_PERICENTER><MEAN_ANOMALY>310.0778</MEAN_ANOMALY></meanElements><tleParameters><EPHEMERIS_TYPE>0</EPHEMERIS_TYPE><CLASSIFICATION_TYPE>U</CLASSIFICATION_TYPE><NORAD_CAT_ID>25078</NORAD_CAT_ID><ELEMENT_SET_NO>999</ELEMENT_SET_NO><REV_AT_EPOCH>44516</REV_AT_EPOCH><BSTAR>.71076E-4</BSTAR><MEAN_MOTION_DOT>.245E-5</MEAN_MOTION_DOT><MEAN_MOTION_DDOT>0</MEAN_MOTION_DDOT></tleParameters></data></segment></body></omm>
<omm id="CCSDS_OMM_VERS" version="2.0">
<header><CREATION_DATE/><ORIGINATOR/></header><body><segment><metadata><OBJECT_NAME>IRIDIUM 45</OBJECT_NAME><OBJECT_ID>1997-082A</OBJECT_ID><CENTER_NAME>EARTH</CENTER_NAME><REF_FRAME>TEME</REF_FRAME><TIME_SYSTEM>UTC</TIME_SYSTEM><MEAN_ELEMENT_THEORY>SGP4</MEAN_ELEMENT_THEORY></metadata><data><meanElements><EPOCH>2025-06-27T08:59:40.477920</EPOCH><MEAN_MOTION>15.22659300</MEAN_MOTION><ECCENTRICITY>.011362</ECCENTRICITY><INCLINATION>86.3570</INCLINATION><RA_OF_ASC_NODE>42.9453</RA_OF_ASC_NODE><ARG_OF_PERICENTER>294.0317</ARG_OF_PERICENTER><MEAN_ANOMALY>64.9069</MEAN_ANOMALY></meanElements><tleParameters><EPHEMERIS_TYPE>0</EPHEMERIS_TYPE><CLASSIFICATION_TYPE>U</CLASSIFICATION_TYPE><NORAD_CAT_ID>25104</NORAD_CAT_ID><ELEMENT_SET_NO>999</ELEMENT_SET_NO><REV_AT_EPOCH>45359</REV_AT_EPOCH><BSTAR>.39791E-3</BSTAR><MEAN_MOTION_DOT>.11134E-3</MEAN_MOTION_DOT><MEAN_MOTION_DDOT>0</MEAN_MOTION_DDOT></tleParameters></data></segment></body></omm>
<omm id="CCSDS_OMM_VERS" version="2.0">
<header><CREATION_DATE/><ORIGINATOR/></header><body><segment><metadata><OBJECT_NAME>IRIDIUM 24</OBJECT_NAME><OBJECT_ID>1997-082B</OBJECT_ID><CENTER_NAME>EARTH</CENTER_NAME><REF_FRAME>TEME</REF_FRAME><TIME_SYSTEM>UTC</TIME_SYSTEM><MEAN_ELEMENT_THEORY>SGP4</MEAN_ELEMENT_THEORY></metadata><data><meanElements><EPOCH>2025-06-27T10:35:44.067264</EPOCH><MEAN_MOTION>14.42106711</MEAN_MOTION><ECCENTRICITY>.0013177</ECCENTRICITY><INCLINATION>86.3897</INCLINATION><RA_OF_ASC_NODE>75.9520</RA_OF_ASC_NODE><ARG_OF_PERICENTER>50.7007</ARG_OF_PERICENTER><MEAN_ANOMALY>309.5359</MEAN_ANOMALY></meanElements><tleParameters><EPHEMERIS_TYPE>0</EPHEMERIS_TYPE><CLASSIFICATION_TYPE>U</CLASSIFICATION_TYPE><NORAD_CAT_ID>25105</NORAD_CAT_ID><ELEMENT_SET_NO>999</ELEMENT_SET_NO><REV_AT_EPOCH>44469</REV_AT_EPOCH><BSTAR>.10416E-3</BSTAR><MEAN_MOTION_DOT>.363E-5</MEAN_MOTION_DOT><MEAN_MOTION_DDOT>0</MEAN_MOTION_DDOT></tleParameters></data></segment></body></omm>
<omm id="CCSDS_OMM_VERS" version="2.0">
<header><CREATION_DATE/><ORIGINATOR/></header><body><segment><metadata><OBJECT_NAME>IRIDIUM 51</OBJECT_NAME><OBJECT_ID>1998-018A</OBJECT_ID><CENTER_NAME>EARTH</CENTER_NAME><REF_FRAME>TEME</REF_FRAME><TIME_SYSTEM>UTC</TIME_SYSTEM><MEAN_ELEMENT_THEORY>SGP4</MEAN_ELEMENT_THEORY></metadata><data><meanElements><EPOCH>2025-06-27T14:56:34.250496</EPOCH><MEAN_MOTION>15.40249806</MEAN_MOTION><ECCENTRICITY>.008426</ECCENTRICITY><INCLINATION>86.3820</INCLINATION><RA_OF_ASC_NODE>50.6642</RA_OF_ASC_NODE><ARG_OF_PERICENTER>208.4000</ARG_OF_PERICENTER><MEAN_ANOMALY>151.2651</MEAN_ANOMALY></meanElements><tleParameters><EPHEMERIS_TYPE>0</EPHEMERIS_TYPE><CLASSIFICATION_TYPE>U</CLASSIFICATION_TYPE><NORAD_CAT_ID>25262</NORAD_CAT_ID><ELEMENT_SET_NO>999</ELEMENT_SET_NO><REV_AT_EPOCH>44863</REV_AT_EPOCH><BSTAR>.48665E-3</BSTAR><MEAN_MOTION_DOT>.22276E-3</MEAN_MOTION_DOT><MEAN_MOTION_DDOT>0</MEAN_MOTION_DDOT></tleParameters></data></segment></body></omm>
<omm id="CCSDS_OMM_VERS" version="2.0">
<header><CREATION_DATE/><ORIGINATOR/></header><body><segment><metadata><OBJECT_NAME>IRIDIUM 57</OBJECT_NAME><OBJECT_ID>1998-019B</OBJECT_ID><CENTER_NAME>EARTH</CENTER_NAME><REF_FRAME>TEME</REF_FRAME><TIME_SYSTEM>UTC</TIME_SYSTEM><MEAN_ELEMENT_THEORY>SGP4</MEAN_ELEMENT_THEORY></metadata><data><meanElements><EPOCH>2025-06-27T08:18:38.485728</EPOCH><MEAN_MOTION>14.35898498</MEAN_MOTION><ECCENTRICITY>.0002342</ECCENTRICITY><INCLINATION>86.3979</INCLINATION><RA_OF_ASC_NODE>141.0068</RA_OF_ASC_NODE><ARG_OF_PERICENTER>85.9083</ARG_OF_PERICENTER><MEAN_ANOMALY>274.2381</MEAN_ANOMALY></meanElements><tleParameters><EPHEMERIS_TYPE>0</EPHEMERIS_TYPE><CLASSIFICATION_TYPE>U</CLASSIFICATION_TYPE><NORAD_CAT_ID>25273</NORAD_CAT_ID><ELEMENT_SET_NO>999</ELEMENT_SET_NO><REV_AT_EPOCH>42624</REV_AT_EPOCH><BSTAR>.75878E-4</BSTAR><MEAN_MOTION_DOT>.24E-5</MEAN_MOTION_DOT><MEAN_MOTION_DDOT>0</MEAN_MOTION_DDOT></tleParameters></data></segment></body></omm>

</ndm>
